KORONAS-FOTON           
1 33504U 09003A   26201.86353676  .00009635  00000+0  19365-3 0  9991
2 33504  82.4306 137.1137 0011668  44.5676 315.6509 15.46390634966301
CZ-2C R/B               
1 37731U 11030B   26201.87779955  .00000577  00000+0  78936-4 0  9999
2 37731  97.8672 156.6617 0050676 277.1384 140.4149 14.81538957809810
H-2A R/B                
1 38341U 12025E   26201.87185045  .00001259  00000+0  11694-3 0  9998
2 38341  98.4849 179.8023 0042719 235.7784 123.9383 14.95848432768123
SHIJIAN-16 (SJ-16)      
1 39358U 13057A   26201.61817987  .00000969  00000+0  96568-4 0  9993
2 39358  74.9736 293.3635 0015581 151.7251 208.4787 14.92680019691337
SL-4 R/B                
1 39679U 14021B   26201.82255955  .00007076  00000+0  14779-3 0  9994
2 39679  51.6068  45.9129 0089407 229.2481 130.0719 15.42555470676804
ALOS-2                  
1 39766U 14029A   26201.75270015  .00000566  00000+0  82710-4 0  9993
2 39766  97.9225 298.4370 0001588  91.3293 268.8100 14.79473928656544
YAOGAN-29               
1 41038U 15069A   26201.84408756  .00000449  00000+0  61684-4 0  9995
2 41038  98.0020 230.5283 0000161  27.8100 332.3122 14.83109516575614
ASTRO-H (HITOMI)        
1 41337U 16012A   26201.27108818  .00001284  00000+0  70049-4 0  9992
2 41337  30.9974 220.4992 0009671 226.2972 133.6865 15.10644305572299
HXMT (HUIYAN)           
1 42758U 17034A   26201.74457101  .00002637  00000+0  13479-3 0  9995
2 42758  43.0152 356.1492 0031551 355.7121   4.3454 15.18716792502769
SAOCOM 1A               
1 43641U 18076A   26201.82383133  .00000510  00000+0  70637-4 0  9994
2 43641  97.8894  28.0838 0001488  86.8385 273.2998 14.82151046421080
H-2A R/B                
1 43682U 18084L   26201.59491552  .00012172  00000+0  24720-3 0  9995
2 43682  98.8522  87.8125 0020270 280.1764  79.7195 15.46329982426288
SAOCOM 1B               
1 46265U 20059A   26201.85503389 -.00000339  00000+0 -36099-4 0  9998
2 46265  97.8899  27.2111 0001485  84.7493 275.3889 14.82143307318470
CSS (TIANHE)            
1 48274U 21035A   26201.79118141  .00010450  00000+0  13847-3 0  9994
2 48274  41.4681 117.9120 0001779 306.1178  53.9495 15.58223796298419
COSMOS 2550             
1 48865U 21056A   26201.86705476  .00003297  00000+0  10589-3 0  9995
2 48865  67.1441 358.0252 0008542 269.4677  90.5499 15.33862895283886
CZ-2C R/B               
1 52794U 22058K   26201.42155585  .00027309  00000+0  28001-3 0  9994
2 52794  50.1861 350.2809 0030070  44.5445 315.7940 15.64135343230844
CZ-2C R/B               
1 54039U 22132E   26201.28416229  .00043555  00000+0  28756-3 0  9998
2 54039  97.2897 209.8860 0008622 317.4870  42.5727 15.75445426211156
GSLV R/B                
1 54149U 22138AN  26201.80036060  .00001562  00000+0  13127-3 0  9993
2 54149  87.3815 121.6972 0022861  33.5052 326.7621 14.97398927203845
XRISM                   
1 57800U 23137A   26201.18524264  .00002251  00000+0  11998-3 0  9999
2 57800  31.0011 145.8091 0007848 295.7303  64.2525 15.12690874157866
ACS3                    
1 59588U 24077B   26200.70021256  .00003608  00000+0  25000-2 0  9993
2 59588  97.1775 112.2879 0129376  31.3060 329.5729 13.95428126112578
SPACEMOBILE-003         
1 61045U 24163A   26201.14245972  .00001670  00000+0  89590-4 0  9995
2 61045  52.9674 157.8928 0004241 210.2897 149.7852 15.20721715102786
SPACEMOBILE-005         
1 61046U 24163B   26201.25732527  .00001252  00000+0  70891-4 0  9995
2 61046  52.9743 157.3189 0008669 211.7347 148.3126 15.20720640102798
SPACEMOBILE-001         
1 61047U 24163C   26201.25568385 -.00000135  00000+0  86599-5 0  9998
2 61047  52.9710 157.0335 0006953 209.4162 150.6442 15.20700764102798
SPACEMOBILE-002         
1 61048U 24163D   26200.18806198  .00010534  00000+0  48876-3 0  9994
2 61048  52.9793 161.9891 0004751 205.9492 154.1265 15.20578455102637
SPACEMOBILE-004         
1 61049U 24163E   26201.28776774  .00011771  00000+0  54287-3 0  9990
2 61049  52.9728 156.7022 0005406 240.1803 119.8654 15.20670628102803
CZ-8A R/B               
1 66004U 25231K   26201.38226770 -.00000100  00000+0  23312-4 0  9991
2 66004  50.0032 258.0904 0116538 340.8790  18.7770 14.30163075 39698
SZ-21 MODULE            
1 66515U 25246C   26200.93928356  .00034255  00000+0  18665-3 0  9994
2 66515  41.4720 102.9079 0009191 250.3291 109.6563 15.79140397 38910
